[{"OBJECT_NAME":"GHGSAT-C4","OBJECT_ID":"2022-057Q","EPOCH":"2026-03-09T22:58:28.655904","MEAN_MOTION":15.3293316,"ECCENTRICITY":0.0007552,"INCLINATION":97.6357,"RA_OF_ASC_NODE":210.0193,"ARG_OF_PERICENTER":100.0033,"MEAN_ANOMALY":260.2061,"EPHEMERIS_TYPE":0,"CLASSIFICATION_TYPE":"U","NORAD_CAT_ID":52746,"ELEMENT_SET_NO":999,"REV_AT_EPOCH":21033,"BSTAR":0.00030289005,"MEAN_MOTION_DOT":9.562e-5,"MEAN_MOTION_DDOT":0},{"OBJECT_NAME":"STARLINK-34131","OBJECT_ID":"2025-113N","EPOCH":"2026-03-09T08:24:48.636288","MEAN_MOTION":15.3019975,"ECCENTRICITY":0.00011013,"INCLINATION":53.1583,"RA_OF_ASC_NODE":92.67,"ARG_OF_PERICENTER":81.19,"MEAN_ANOMALY":278.9225,"EPHEMERIS_TYPE":0,"CLASSIFICATION_TYPE":"U","NORAD_CAT_ID":64182,"ELEMENT_SET_NO":999,"REV_AT_EPOCH":4497,"BSTAR":0.0011389515,"MEAN_MOTION_DOT":0.00033525,"MEAN_MOTION_DDOT":0}]
